{"type": "FeatureCollection", "features": [ {"type": "Feature", "properties": {"norad_id": 32260, "name": "GPS BIIRM-4 (PRN 15)", "group": "gnss", "lat": 16.068151352687064, "lon": -104.60332413661378, "alt_km": 20058.680558337015, "timestamp": "2025-12-19T10:50:01.442556+00:00", "meta": {"OBJECT_NAME": "GPS BIIRM-4 (PRN 15)", "OBJECT_ID": "2007-047A", "EPOCH": "2025-12-18T05:42:28.689120", "MEAN_MOTION": 2.0056436, "ECCENTRICITY": 0.01640962, "INCLINATION": 53.959, "RA_OF_ASC_NODE": 87.5314, "ARG_OF_PERICENTER": 85.3192, "MEAN_ANOMALY": 276.5459, "EPHEMERIS_TYPE": 0, "CLASSIFICATION_TYPE": "U", "NORAD_CAT_ID": 32260, "ELEMENT_SET_NO": 999, "REV_AT_EPOCH": 13318, "BSTAR": 0, "MEAN_MOTION_DOT": -4.8e-07, "MEAN_MOTION_DDOT": 0}, "tle": {"line1": "1 32260U 07047A   25352.23783205 -.00000048  00000+0  00000+0 0  9999", "line2": "2 32260  53.9590  87.5314 0164096  85.3192 276.5459  2.00564360133188"}}, "geometry": {"type": "Point", "coordinates": [-104.60332413661378, 16.068151352687064]}}, {"type": "Feature", "properties": {"norad_id": 32275, "name": "COSMOS 2433 (720)", "group": "gnss", "lat": -18.786999713745637, "lon": 150.81060923727196, "alt_km": 19124.65483100669, "timestamp": "2025-12-19T10:50:01.442569+00:00", "meta": {"OBJECT_NAME": "COSMOS 2433 (720)", "OBJECT_ID": "2007-052A", "EPOCH": "2025-12-18T06:01:45.286176", "MEAN_MOTION": 2.13104131, "ECCENTRICITY": 0.00053253, "INCLINATION": 65.6801, "RA_OF_ASC_NODE": 322.0201, "ARG_OF_PERICENTER": 254.759, "MEAN_ANOMALY": 105.1749, "EPHEMERIS_TYPE": 0, "CLASSIFICATION_TYPE": "U", "NORAD_CAT_ID": 32275, "ELEMENT_SET_NO": 999, "REV_AT_EPOCH": 14120, "BSTAR": 0, "MEAN_MOTION_DOT": -6.3e-07, "MEAN_MOTION_DDOT": 0}, "tle": {"line1": "1 32275U 07052A   25352.25121859 -.00000063  00000+0  00000+0 0  9991", "line2": "2 32275  65.6801 322.0201 0005325 254.7590 105.1749  2.13104131141205"}}, "geometry": {"type": "Point", "coordinates": [150.81060923727196, -18.786999713745637]}}, {"type": "Feature", "properties": {"norad_id": 32276, "name": "COSMOS 2432 (719)", "group": "gnss", "lat": 31.37310484736941, "lon": 126.09790677887902, "alt_km": 19154.53354378344, "timestamp": "2025-12-19T10:50:01.442582+00:00", "meta": {"OBJECT_NAME": "COSMOS 2432 (719)", "OBJECT_ID": "2007-052B", "EPOCH": "2025-12-18T13:03:56.692224", "MEAN_MOTION": 2.13103303, "ECCENTRICITY": 0.00113252, "INCLINATION": 65.6958, "RA_OF_ASC_NODE": 322.1345, "ARG_OF_PERICENTER": 313.2452, "MEAN_ANOMALY": 216.061, "EPHEMERIS_TYPE": 0, "CLASSIFICATION_TYPE": "U", "NORAD_CAT_ID": 32276, "ELEMENT_SET_NO": 999, "REV_AT_EPOCH": 14123, "BSTAR": 0, "MEAN_MOTION_DOT": -6.2e-07, "MEAN_MOTION_DDOT": 0}, "tle": {"line1": "1 32276U 07052B   25352.54440616 -.00000062  00000+0  00000+0 0  9998", "line2": "2 32276  65.6958 322.1345 0011325 313.2452 216.0610  2.13103303141236"}}, "geometry": {"type": "Point", "coordinates": [126.09790677887902, 31.37310484736941]}}, {"type": "Feature", "properties": {"norad_id": 32384, "name": "GPS BIIRM-5 (PRN 29)", "group": "gnss", "lat": -51.3732991978781, "lon": -139.07793781126736, "alt_km": 20236.53714994722, "timestamp": "2025-12-19T10:50:01.442593+00:00", "meta": {"OBJECT_NAME": "GPS BIIRM-5 (PRN 29)", "OBJECT_ID": "2007-062A", "EPOCH": "2025-12-18T19:12:42.092352", "MEAN_MOTION": 2.00577688, "ECCENTRICITY": 0.00322662, "INCLINATION": 55.1769, "RA_OF_ASC_NODE": 281.4029, "ARG_OF_PERICENTER": 162.2283, "MEAN_ANOMALY": 15.3827, "EPHEMERIS_TYPE": 0, "CLASSIFICATION_TYPE": "U", "NORAD_CAT_ID": 32384, "ELEMENT_SET_NO": 999, "REV_AT_EPOCH": 13189, "BSTAR": 0, "MEAN_MOTION_DOT": -4.1e-07, "MEAN_MOTION_DDOT": 0}, "tle": {"line1": "1 32384U 07062A   25352.80048718 -.00000041  00000+0  00000+0 0  9992", "line2": "2 32384  55.1769 281.4029 0032266 162.2283  15.3827  2.00577688131895"}}, "geometry": {"type": "Point", "coordinates": [-139.07793781126736, -51.3732991978781]}}, {"type": "Feature", "properties": {"norad_id": 32393, "name": "COSMOS 2434 (721)", "group": "gnss", "lat": 64.26185622553876, "lon": -69.12201255634086, "alt_km": 19112.403481144866, "timestamp": "2025-12-19T10:50:01.442606+00:00", "meta": {"OBJECT_NAME": "COSMOS 2434 (721)", "OBJECT_ID": "2007-065A", "EPOCH": "2025-12-18T04:23:29.536800", "MEAN_MOTION": 2.13101428, "ECCENTRICITY": 0.00044399, "INCLINATION": 64.3148, "RA_OF_ASC_NODE": 198.0196, "ARG_OF_PERICENTER": 71.1558, "MEAN_ANOMALY": 127.0412, "EPHEMERIS_TYPE": 0, "CLASSIFICATION_TYPE": "U", "NORAD_CAT_ID": 32393, "ELEMENT_SET_NO": 999, "REV_AT_EPOCH": 13991, "BSTAR": 0, "MEAN_MOTION_DOT": 1.1e-06, "MEAN_MOTION_DDOT": 0}, "tle": {"line1": "1 32393U 07065A   25352.18298075  .00000110  00000+0  00000+0 0  9995", "line2": "2 32393  64.3148 198.0196 0004439  71.1558 127.0412  2.13101428139911"}}, "geometry": {"type": "Point", "coordinates": [-69.12201255634086, 64.26185622553876]}}, {"type": "Feature", "properties": {"norad_id": 32395, "name": "COSMOS 2436 (723)", "group": "gnss", "lat": -38.90674653399241, "lon": 40.90894601559367, "alt_km": 19172.13236847344, "timestamp": "2025-12-19T10:50:01.442618+00:00", "meta": {"OBJECT_NAME": "COSMOS 2436 (723)", "OBJECT_ID": "2007-065C", "EPOCH": "2025-12-16T08:11:52.503360", "MEAN_MOTION": 2.13100112, "ECCENTRICITY": 0.00177699, "INCLINATION": 64.3235, "RA_OF_ASC_NODE": 198.1521, "ARG_OF_PERICENTER": 9.2217, "MEAN_ANOMALY": 349.3751, "EPHEMERIS_TYPE": 0, "CLASSIFICATION_TYPE": "U", "NORAD_CAT_ID": 32395, "ELEMENT_SET_NO": 999, "REV_AT_EPOCH": 13982, "BSTAR": 0, "MEAN_MOTION_DOT": 1.1e-06, "MEAN_MOTION_DDOT": 0}, "tle": {"line1": "1 32395U 07065C   25350.34157990  .00000110  00000+0  00000+0 0  9993", "line2": "2 32395  64.3235 198.1521 0017769   9.2217 349.3751  2.13100112139821"}}, "geometry": {"type": "Point", "coordinates": [40.90894601559367, -38.90674653399241]}}, {"type": "Feature", "properties": {"norad_id": 32711, "name": "GPS BIIRM-6 (PRN 07)", "group": "gnss", "lat": -24.38820226854877, "lon": -3.99974218094034, "alt_km": 19738.720796244772, "timestamp": "2025-12-19T10:50:01.442629+00:00", "meta": {"OBJECT_NAME": "GPS BIIRM-6 (PRN 07)", "OBJECT_ID": "2008-012A", "EPOCH": "2025-12-18T15:45:34.322400", "MEAN_MOTION": 2.00565916, "ECCENTRICITY": 0.02026894, "INCLINATION": 54.4778, "RA_OF_ASC_NODE": 157.1367, "ARG_OF_PERICENTER": 245.0129, "MEAN_ANOMALY": 112.867, "EPHEMERIS_TYPE": 0, "CLASSIFICATION_TYPE": "U", "NORAD_CAT_ID": 32711, "ELEMENT_SET_NO": 999, "REV_AT_EPOCH": 13013, "BSTAR": 0, "MEAN_MOTION_DOT": 7e-07, "MEAN_MOTION_DDOT": 0}, "tle": {"line1": "1 32711U 08012A   25352.65664725  .00000070  00000+0  00000+0 0  9998", "line2": "2 32711  54.4778 157.1367 0202689 245.0129 112.8670  2.00565916130138"}}, "geometry": {"type": "Point", "coordinates": [-3.99974218094034, -24.38820226854877]}}, {"type": "Feature", "properties": {"norad_id": 35752, "name": "GPS BIIRM-8 (PRN 05)", "group": "gnss", "lat": -40.81187446803291, "lon": -109.98382653465802, "alt_km": 20306.025764745376, "timestamp": "2025-12-19T10:50:01.442641+00:00", "meta": {"OBJECT_NAME": "GPS BIIRM-8 (PRN 05)", "OBJECT_ID": "2009-043A", "EPOCH": "2025-12-18T04:21:14.473728", "MEAN_MOTION": 2.00565462, "ECCENTRICITY": 0.00516833, "INCLINATION": 56.0947, "RA_OF_ASC_NODE": 34.5684, "ARG_OF_PERICENTER": 81.8123, "MEAN_ANOMALY": 312.8651, "EPHEMERIS_TYPE": 0, "CLASSIFICATION_TYPE": "U", "NORAD_CAT_ID": 35752, "ELEMENT_SET_NO": 999, "REV_AT_EPOCH": 11973, "BSTAR": 0, "MEAN_MOTION_DOT": -7.2e-07, "MEAN_MOTION_DDOT": 0}, "tle": {"line1": "1 35752U 09043A   25352.18141752 -.00000072  00000+0  00000+0 0  9992", "line2": "2 35752  56.0947  34.5684 0051683  81.8123 312.8651  2.00565462119738"}}, "geometry": {"type": "Point", "coordinates": [-109.98382653465802, -40.81187446803291]}}, {"type": "Feature", "properties": {"norad_id": 36111, "name": "COSMOS 2456 (730)", "group": "gnss", "lat": -57.363147962522, "lon": -55.953632651101614, "alt_km": 19130.69371864754, "timestamp": "2025-12-19T10:50:01.442653+00:00", "meta": {"OBJECT_NAME": "COSMOS 2456 (730)", "OBJECT_ID": "2009-070A", "EPOCH": "2025-12-18T06:55:18.738048", "MEAN_MOTION": 2.13103695, "ECCENTRICITY": 0.00031882, "INCLINATION": 64.9035, "RA_OF_ASC_NODE": 77.1481, "ARG_OF_PERICENTER": 297.6027, "MEAN_ANOMALY": 138.5871, "EPHEMERIS_TYPE": 0, "CLASSIFICATION_TYPE": "U", "NORAD_CAT_ID": 36111, "ELEMENT_SET_NO": 999, "REV_AT_EPOCH": 12457, "BSTAR": 0, "MEAN_MOTION_DOT": -4.1e-07, "MEAN_MOTION_DDOT": 0}, "tle": {"line1": "1 36111U 09070A   25352.28841132 -.00000041  00000+0  00000+0 0  9998", "line2": "2 36111  64.9035  77.1481 0003188 297.6027 138.5871  2.13103695124574"}}, "geometry": {"type": "Point", "coordinates": [-55.953632651101614, -57.363147962522]}}, {"type": "Feature", "properties": {"norad_id": 36112, "name": "COSMOS 2457 (733)", "group": "gnss", "lat": 15.732548671934866, "lon": 84.54547144736382, "alt_km": 19137.858962774208, "timestamp": "2025-12-19T10:50:01.442664+00:00", "meta": {"OBJECT_NAME": "COSMOS 2457 (733)", "OBJECT_ID": "2009-070B", "EPOCH": "2025-12-18T11:41:17.961216", "MEAN_MOTION": 2.13101033, "ECCENTRICITY": 0.00046158, "INCLINATION": 64.8891, "RA_OF_ASC_NODE": 76.9887, "ARG_OF_PERICENTER": 160.5919, "MEAN_ANOMALY": 197.0462, "EPHEMERIS_TYPE": 0, "CLASSIFICATION_TYPE": "U", "NORAD_CAT_ID": 36112, "ELEMENT_SET_NO": 999, "REV_AT_EPOCH": 12457, "BSTAR": 0, "MEAN_MOTION_DOT": -3.9e-07, "MEAN_MOTION_DDOT": 0}, "tle": {"line1": "1 36112U 09070B   25352.48701344 -.00000039  00000+0  00000+0 0  9998", "line2": "2 36112  64.8891  76.9887 0004615 160.5919 197.0462  2.13101033124575"}}, "geometry": {"type": "Point", "coordinates": [84.54547144736382, 15.732548671934866]}}]}